{
  "type": "FeatureCollection",
  "features": [
    {
      "type": "Feature",
      "properties": {
        "norad_id": 29268,
        "name": "ARIRANG-2 (KOMPSAT-2)",
        "group": "resource",
        "lat": 5.170534489623158,
        "lon": -176.89349653991877,
        "alt_km": 680.5329934744832,
        "timestamp": "2025-12-21T18:54:58.149859+00:00",
        "meta_object_name": "ARIRANG-2 (KOMPSAT-2)",
        "meta_object_id": "2006-031A",
        "meta_epoch": "2025-12-21T14:23:48.497568",
        "meta_mean_motion": 14.64500988,
        "meta_eccentricity": 0.00131684,
        "meta_inclination": 97.8253,
        "meta_ra_of_asc_node": 183.6405,
        "meta_arg_of_pericenter": 278.6193,
        "meta_mean_anomaly": 174.3769,
        "meta_ephemeris_type": 0,
        "meta_classification_type": "U",
        "meta_norad_cat_id": 29268,
        "meta_element_set_no": 999,
        "meta_rev_at_epoch": 3548,
        "meta_bstar": 6.6564872e-05,
        "meta_mean_motion_dot": 3.08e-06,
        "meta_mean_motion_ddot": 0,
        "tle_line1": "1 29268U 06031A   25355.59986687  .00000308  00000+0  66565-4 0  9997",
        "tle_line2": "2 29268  97.8253 183.6405 0013168 278.6193 174.3769 14.64500988 35487"
      },
      "geometry": {
        "type": "Point",
        "coordinates": [
          -176.89349653991877,
          5.170534489623158
        ]
      }
    },
    {
      "type": "Feature",
      "properties": {
        "norad_id": 29709,
        "name": "LAPAN-TUBSAT",
        "group": "resource",
        "lat": -81.78731898637706,
        "lon": 84.29180224665491,
        "alt_km": 625.7957948612702,
        "timestamp": "2025-12-21T18:54:58.149869+00:00",
        "meta_object_name": "LAPAN-TUBSAT",
        "meta_object_id": "2007-001A",
        "meta_epoch": "2025-12-21T14:28:36.759072",
        "meta_mean_motion": 14.85683015,
        "meta_eccentricity": 0.00133644,
        "meta_inclination": 98.1252,
        "meta_ra_of_asc_node": 345.9418,
        "meta_arg_of_pericenter": 48.0549,
        "meta_mean_anomaly": 312.1802,
        "meta_ephemeris_type": 0,
        "meta_classification_type": "U",
        "meta_norad_cat_id": 29709,
        "meta_element_set_no": 999,
        "meta_rev_at_epoch": 2478,
        "meta_bstar": 9.3912539e-05,
        "meta_mean_motion_dot": 7.58e-06,
        "meta_mean_motion_ddot": 0,
        "tle_line1": "1 29709U 07001A   25355.60320323  .00000758  00000+0  93913-4 0  9992",
        "tle_line2": "2 29709  98.1252 345.9418 0013364  48.0549 312.1802 14.85683015 24786"
      },
      "geometry": {
        "type": "Point",
        "coordinates": [
          84.29180224665491,
          -81.78731898637706
        ]
      }
    },
    {
      "type": "Feature",
      "properties": {
        "norad_id": 31113,
        "name": "HAIYANG-1B",
        "group": "resource",
        "lat": 5.181547259665728,
        "lon": 160.45421449596742,
        "alt_km": 800.2145156292399,
        "timestamp": "2025-12-21T18:54:58.149880+00:00",
        "meta_object_name": "HAIYANG-1B",
        "meta_object_id": "2007-010A",
        "meta_epoch": "2025-12-20T20:17:13.259040",
        "meta_mean_motion": 14.30967553,
        "meta_eccentricity": 0.0013866,
        "meta_inclination": 98.3321,
        "meta_ra_of_asc_node": 338.7888,
        "meta_arg_of_pericenter": 14.9776,
        "meta_mean_anomaly": 345.1816,
        "meta_ephemeris_type": 0,
        "meta_classification_type": "U",
        "meta_norad_cat_id": 31113,
        "meta_element_set_no": 999,
        "meta_rev_at_epoch": 97512,
        "meta_bstar": 4.2056e-05,
        "meta_mean_motion_dot": 6.9e-07,
        "meta_mean_motion_ddot": 0,
        "tle_line1": "1 31113U 07010A   25354.84529235  .00000069  00000+0  42056-4 0  9999",
        "tle_line2": "2 31113  98.3321 338.7888 0013866  14.9776 345.1816 14.30967553975125"
      },
      "geometry": {
        "type": "Point",
        "coordinates": [
          160.45421449596742,
          5.181547259665728
        ]
      }
    },
    {
      "type": "Feature",
      "properties": {
        "norad_id": 31598,
        "name": "COSMO-SKYMED 1",
        "group": "resource",
        "lat": -14.066747220262332,
        "lon": -0.7428327268610225,
        "alt_km": 584.8866606384427,
        "timestamp": "2025-12-21T18:54:58.149890+00:00",
        "meta_object_name": "COSMO-SKYMED 1",
        "meta_object_id": "2007-023A",
        "meta_epoch": "2025-12-21T13:14:05.856288",
        "meta_mean_motion": 14.95829297,
        "meta_eccentricity": 0.00015262,
        "meta_inclination": 97.8838,
        "meta_ra_of_asc_node": 181.0087,
        "meta_arg_of_pericenter": 81.8232,
        "meta_mean_anomaly": 278.3162,
        "meta_ephemeris_type": 0,
        "meta_classification_type": "U",
        "meta_norad_cat_id": 31598,
        "meta_element_set_no": 999,
        "meta_rev_at_epoch": 322,
        "meta_bstar": 0.00026616565,
        "meta_mean_motion_dot": 2.913e-05,
        "meta_mean_motion_ddot": 0,
        "tle_line1": "1 31598U 07023A   25355.55145667  .00002913  00000+0  26617-3 0  9996",
        "tle_line2": "2 31598  97.8838 181.0087 0001526  81.8232 278.3162 14.95829297  3226"
      },
      "geometry": {
        "type": "Point",
        "coordinates": [
          -0.7428327268610225,
          -14.066747220262332
        ]
      }
    },
    {
      "type": "Feature",
      "properties": {
        "norad_id": 31698,
        "name": "TERRASAR-X",
        "group": "resource",
        "lat": -67.96092646371903,
        "lon": 162.18984219375727,
        "alt_km": 516.890235860642,
        "timestamp": "2025-12-21T18:54:58.149901+00:00",
        "meta_object_name": "TERRASAR-X",
        "meta_object_id": "2007-026A",
        "meta_epoch": "2025-12-21T13:04:48.918432",
        "meta_mean_motion": 15.19155537,
        "meta_eccentricity": 0.00019084,
        "meta_inclination": 97.4453,
        "meta_ra_of_asc_node": 0.797,
        "meta_arg_of_pericenter": 92.2081,
        "meta_mean_anomaly": 267.9372,
        "meta_ephemeris_type": 0,
        "meta_classification_type": "U",
        "meta_norad_cat_id": 31698,
        "meta_element_set_no": 999,
        "meta_rev_at_epoch": 2625,
        "meta_bstar": 3.2983576e-05,
        "meta_mean_motion_dot": 6.26e-06,
        "meta_mean_motion_ddot": 0,
        "tle_line1": "1 31698U 07026A   25355.54501063  .00000626  00000+0  32984-4 0  9999",
        "tle_line2": "2 31698  97.4453   0.7970 0001908  92.2081 267.9372 15.19155537 26257"
      },
      "geometry": {
        "type": "Point",
        "coordinates": [
          162.18984219375727,
          -67.96092646371903
        ]
      }
    },
    {
      "type": "Feature",
      "properties": {
        "norad_id": 32060,
        "name": "WORLDVIEW-1 (WV-1)",
        "group": "resource",
        "lat": 65.03644580638432,
        "lon": 96.96746392571144,
        "alt_km": 486.59251311273147,
        "timestamp": "2025-12-21T18:54:58.149911+00:00",
        "meta_object_name": "WORLDVIEW-1 (WV-1)",
        "meta_object_id": "2007-041A",
        "meta_epoch": "2025-12-21T07:35:45.212064",
        "meta_mean_motion": 15.23889862,
        "meta_eccentricity": 0.0003441,
        "meta_inclination": 97.3826,
        "meta_ra_of_asc_node": 112.6749,
        "meta_arg_of_pericenter": 8.1676,
        "meta_mean_anomaly": 351.9617,
        "meta_ephemeris_type": 0,
        "meta_classification_type": "U",
        "meta_norad_cat_id": 32060,
        "meta_element_set_no": 999,
        "meta_rev_at_epoch": 1578,
        "meta_bstar": 0.00024181,
        "meta_mean_motion_dot": 5.768e-05,
        "meta_mean_motion_ddot": 0,
        "tle_line1": "1 32060U 07041A   25355.31649551  .00005768  00000+0  24181-3 0  9991",
        "tle_line2": "2 32060  97.3826 112.6749 0003441   8.1676 351.9617 15.23889862 15783"
      },
      "geometry": {
        "type": "Point",
        "coordinates": [
          96.96746392571144,
          65.03644580638432
        ]
      }
    },
    {
      "type": "Feature",
      "properties": {
        "norad_id": 32289,
        "name": "YAOGAN-3",
        "group": "resource",
        "lat": -30.652836635221767,
        "lon": -162.34967938895434,
        "alt_km": 604.8574607143983,
        "timestamp": "2025-12-21T18:54:58.149921+00:00",
        "meta_object_name": "YAOGAN-3",
        "meta_object_id": "2007-055A",
        "meta_epoch": "2025-12-21T14:44:56.374368",
        "meta_mean_motion": 14.89894587,
        "meta_eccentricity": 0.00010947,
        "meta_inclination": 97.8352,
        "meta_ra_of_asc_node": 22.1593,
        "meta_arg_of_pericenter": 74.1027,
        "meta_mean_anomaly": 286.0312,
        "meta_ephemeris_type": 0,
        "meta_classification_type": "U",
        "meta_norad_cat_id": 32289,
        "meta_element_set_no": 999,
        "meta_rev_at_epoch": 97941,
        "meta_bstar": 0.00015771627,
        "meta_mean_motion_dot": 1.461e-05,
        "meta_mean_motion_ddot": 0,
        "tle_line1": "1 32289U 07055A   25355.61454137  .00001461  00000+0  15772-3 0  9998",
        "tle_line2": "2 32289  97.8352  22.1593 0001094  74.1027 286.0312 14.89894587979412"
      },
      "geometry": {
        "type": "Point",
        "coordinates": [
          -162.34967938895434,
          -30.652836635221767
        ]
      }
    }
  ]
}